PLEIADES NEO 3          
1 48268U 21034A   26191.88951109  .00000449  00000+0  63685-4 0  9996
2 48268  97.8938 266.3149 0001327  94.7243 265.4122 14.81675422281167
PLEIADES NEO 4          
1 49070U 21073E   26191.85573538  .00000717  00000+0  97690-4 0  9995
2 49070  97.8937 266.2781 0001346  91.5731 268.5636 14.81674401264876
