{"fetched_at":"2026-07-11T06:35:41.201Z","source":"https://celestrak.org/NORAD/elements/gp.php?NAME=PLEIADES&FORMAT=JSON","constellation":"pleiades-neo","records":[{"OBJECT_NAME":"PLEIADES NEO 3","OBJECT_ID":"2021-034A","EPOCH":"2026-07-10T21:20:53.758176","CLASSIFICATION_TYPE":"U","MEAN_MOTION":14.81675422,"ECCENTRICITY":0.0001327,"INCLINATION":97.8938,"RA_OF_ASC_NODE":266.3149,"ARG_OF_PERICENTER":94.7243,"MEAN_ANOMALY":265.4122,"EPHEMERIS_TYPE":0,"NORAD_CAT_ID":48268,"ELEMENT_SET_NO":999,"REV_AT_EPOCH":28116,"BSTAR":0.000063685,"MEAN_MOTION_DOT":0.00000449,"MEAN_MOTION_DDOT":0},{"OBJECT_NAME":"PLEIADES NEO 4","OBJECT_ID":"2021-073E","EPOCH":"2026-07-10T20:32:15.536832","CLASSIFICATION_TYPE":"U","MEAN_MOTION":14.81674401,"ECCENTRICITY":0.0001346,"INCLINATION":97.8937,"RA_OF_ASC_NODE":266.2781,"ARG_OF_PERICENTER":91.5731,"MEAN_ANOMALY":268.5636,"EPHEMERIS_TYPE":0,"NORAD_CAT_ID":49070,"ELEMENT_SET_NO":999,"REV_AT_EPOCH":26487,"BSTAR":0.00009769,"MEAN_MOTION_DOT":0.00000717,"MEAN_MOTION_DDOT":0}]}
